0 THORAD DELTA 1 R/B(2)
1 09330U 74101G   13281.34205031  .00000218  00000-0  92072-3 0  7500
2 09330 013.1066 353.0076 7227473 358.0260 007.9834 02.27333955312819
0 THORAD DELTA 1 R/B(2)
1 09330U 74101G   13283.99406559  .00000220  00000-0  10668-2 0  7515
2 09330 013.1060 351.9798 7227150 000.0113 018.3800 02.27337708312879
0 THORAD DELTA 1 R/B(2)
1 09330U 74101G   13285.29895572  .00000156  00000-0  94568-3 0  7528
2 09330 013.1057 351.4745 7227100 000.9875 006.3063 02.27338844312905
0 THORAD DELTA 1 R/B(2)
1 09330U 74101G   13287.51397787  .00000212  00000-0  10581-2 0  7536
2 09330 013.1053 350.6162 7226688 002.6464 019.1016 02.27340818312957
0 THORAD DELTA 1 R/B(2)
1 09330U 74101G   13288.88850447  .00000260  00000-0  11127-2 0  7545
2 09330 013.1049 350.0837 7226481 003.6742 064.0356 02.27343112312985
0 THORAD DELTA 1 R/B(2)
1 09330U 74101G   13293.21485353  .00000179  00000-0  83001-3 0  7559
2 09330 013.1037 348.4089 7225864 006.9076 004.8440 02.27348324313080
0 THORAD DELTA 1 R/B(2)
1 09330U 74101G   13294.54924505  .00000089  00000-0  65556-3 0  7569
2 09330 013.1035 347.8920 7225599 007.9047 016.9629 02.27350097313116
